NORAD_CAT_ID,OBJECT_NAME,OBJECT_TYPE,EPOCH,MEAN_MOTION,ECCENTRICITY,INCLINATION,RA_OF_ASC_NODE,ARG_OF_PERICENTER,MEAN_ANOMALY,BSTAR,MEAN_MOTION_DOT,MEAN_MOTION_DDOT,TLE_LINE0,TLE_LINE1,TLE_LINE2,SEMIMAJOR_AXIS,PERIOD,APOGEE,PERIGEE,DECAYED
49759.0,STARLINK-3204,PAYLOAD,2024-05-24 03:57:58,15.08842473,0.0001395,53.2162,197.397,102.5095,257.6053,0.00012046,1.63e-05,0.0,0 STARLINK-3204,1 49759U 21115AM  24145.16526453  .00001630  00000-0  12046-3 0  9998,2 49759  53.2162 197.3970 0001395 102.5095 257.6053 15.08842473137978,6917.873,95.437,540.703,538.773,0.0
49759.0,STARLINK-3204,PAYLOAD,2024-05-24 10:19:31,15.08841783,0.0001295,53.2154,196.2025,90.4007,269.7133,8.9183e-05,1.132e-05,0.0,0 STARLINK-3204,1 49759U 21115AM  24145.43022436  .00001132  00000-0  89183-4 0  9994,2 49759  53.2154 196.2025 0001295  90.4007 269.7133 15.08841783136903,6917.875,95.437,540.636,538.844,0.0
49759.0,STARLINK-3204,PAYLOAD,2024-05-24 19:51:49,15.08848705,0.0001211,53.2165,194.423,98.8621,261.2509,0.00015478,2.177e-05,0.0,0 STARLINK-3204,1 49759U 21115AM  24145.82765704  .00002177  00000-0  15478-3 0  9994,2 49759  53.2165 194.4230 0001211  98.8621 261.2509 15.08848705136966,6917.854,95.437,540.557,538.881,0.0
49759.0,STARLINK-3204,PAYLOAD,2024-05-25 10:10:19,15.0882908,0.0001364,53.2172,191.7488,103.466,256.6484,-2.2152e-05,-6.4e-06,0.0,0 STARLINK-3204,1 49759U 21115AM  24146.42383519 -.00000640  00000-0 -22152-4 0  9994,2 49759  53.2172 191.7488 0001364 103.4660 256.6484 15.08829080138163,6917.914,95.438,540.722,538.835,0.0
49759.0,STARLINK-3204,PAYLOAD,2024-05-25 19:42:36,15.08859756,0.0002753,53.2183,189.9761,160.6409,199.4688,-0.00027772,-4.708e-05,0.0,0 STARLINK-3204,1 49759U 21115AM  24146.82125853 -.00004708  00000-0 -27772-3 0  9994,2 49759  53.2183 189.9761 0002753 160.6409 199.4688 15.08859756138227,6917.82,95.436,541.589,537.781,0.0
49759.0,STARLINK-3204,PAYLOAD,2024-05-26 11:36:28,15.08841484,0.0001138,53.2172,187.0012,97.8624,262.2498,0.00016458,2.333e-05,0.0,0 STARLINK-3204,1 49759U 21115AM  24147.48366376  .00002333  00000-0  16458-3 0  9993,2 49759  53.2172 187.0012 0001138  97.8624 262.2498 15.08841484138327,6917.876,95.437,540.528,538.954,0.0
49759.0,STARLINK-3204,PAYLOAD,2024-05-27 09:51:51,15.08846629,0.0001361,53.2173,182.8326,105.8808,254.2334,0.00028847,4.307e-05,0.0,0 STARLINK-3204,1 49759U 21115AM  24148.41101670  .00004307  00000-0  28847-3 0  9999,2 49759  53.2173 182.8326 0001361 105.8808 254.2334 15.08846629137359,6917.86,95.437,540.667,538.784,0.0
49759.0,STARLINK-3204,PAYLOAD,2024-05-28 01:45:43,15.08853368,0.0001476,53.2173,179.8547,78.5822,281.5336,8.7461e-05,1.105e-05,0.0,0 STARLINK-3204,1 49759U 21115AM  24149.07341554  .00001105  00000-0  87461-4 0  9990,2 49759  53.2173 179.8547 0001476  78.5822 281.5336 15.08853368138566,6917.84,95.437,540.726,538.683,0.0
49759.0,STARLINK-3204,PAYLOAD,2024-05-28 09:42:39,15.08842231,0.0001235,53.2165,178.3615,81.2705,278.8427,-2.953e-05,-7.58e-06,0.0,0 STARLINK-3204,1 49759U 21115AM  24149.40462417 -.00000758  00000-0 -29530-4 0  9997,2 49759  53.2165 178.3615 0001235  81.2705 278.8427 15.08842231138614,6917.874,95.437,540.593,538.884,0.0
49759.0,STARLINK-3204,PAYLOAD,2024-05-29 11:08:50,15.08800834,0.0001257,53.2164,173.604,74.1997,285.9134,0.00047869,7.331e-05,0.0,0 STARLINK-3204,1 49759U 21115AM  24150.46447684  .00007331  00000-0  47869-3 0  9990,2 49759  53.2164 173.6040 0001257  74.1997 285.9134 15.08800834138775,6918.0,95.44,540.735,538.996,0.0
49759.0,STARLINK-3204,PAYLOAD,2024-05-30 04:38:04,15.08837634,0.0001309,53.2165,170.3348,71.9841,288.1293,8.5493e-05,1.073e-05,0.0,0 STARLINK-3204,1 49759U 21115AM  24151.19310286  .00001073  00000-0  85493-4 0  9991,2 49759  53.2165 170.3348 0001309  71.9841 288.1293 15.08837634138883,6917.888,95.438,540.658,538.847,0.0
49759.0,STARLINK-3204,PAYLOAD,2024-05-30 07:48:50,15.08838056,0.0001308,53.2166,169.7401,72.2373,287.8762,8.7567e-05,1.106e-05,0.0,0 STARLINK-3204,1 49759U 21115AM  24151.32558290  .00001106  00000-0  87567-4 0  9996,2 49759  53.2166 169.7401 0001308  72.2373 287.8762 15.08838056137794,6917.886,95.438,540.656,538.846,0.0
49759.0,STARLINK-3204,PAYLOAD,2024-05-31 07:39:37,15.08838987,0.0001337,53.217,165.2818,78.5126,281.6016,3.585e-05,2.83e-06,0.0,0 STARLINK-3204,1 49759U 21115AM  24152.31918589  .00000283  00000-0  35850-4 0  9990,2 49759  53.2170 165.2818 0001337  78.5126 281.6016 15.08838987139057,6917.883,95.438,540.673,538.824,0.0
49759.0,STARLINK-3204,PAYLOAD,2024-06-01 07:30:24,15.08836481,0.0001353,53.217,160.8203,78.4845,281.6299,7.0709e-06,-1.75e-06,0.0,0 STARLINK-3204,1 49759U 21115AM  24153.31278913 -.00000175  00000-0  70709-5 0  9995,2 49759  53.2170 160.8203 0001353  78.4845 281.6299 15.08836481138094,6917.891,95.438,540.692,538.82,0.0
49759.0,STARLINK-3204,PAYLOAD,2024-06-01 17:02:43,15.08837368,0.0001333,53.2168,159.0359,77.0798,283.0343,1.8138e-05,1e-08,0.0,0 STARLINK-3204,1 49759U 21115AM  24153.71022906  .00000001  00000-0  18138-4 0  9992,2 49759  53.2168 159.0359 0001333  77.0798 283.0343 15.08837368139264,6917.888,95.438,540.676,538.831,0.0
49759.0,STARLINK-3204,PAYLOAD,2024-06-02 07:21:12,15.08834071,0.0001369,53.2172,156.3604,79.0288,281.0858,1.9906e-05,2.9e-07,0.0,0 STARLINK-3204,1 49759U 21115AM  24154.30639289  .00000029  00000-0  19906-4 0  9990,2 49759  53.2172 156.3604 0001369  79.0288 281.0858 15.08834071138241,6917.899,95.438,540.711,538.816,0.0
49759.0,STARLINK-3204,PAYLOAD,2024-06-03 05:36:36,15.08836537,0.0001374,53.2172,152.1978,81.6562,278.4586,6.3827e-05,7.28e-06,0.0,0 STARLINK-3204,1 49759U 21115AM  24155.23375337  .00000728  00000-0  63827-4 0  9991,2 49759  53.2172 152.1978 0001374  81.6562 278.4586 15.08836537139494,6917.891,95.438,540.706,538.805,0.0
49759.0,STARLINK-3204,PAYLOAD,2024-06-03 10:22:45,15.08837496,0.0001356,53.2169,151.3052,79.8424,280.2721,6.7554e-05,7.87e-06,0.0,0 STARLINK-3204,1 49759U 21115AM  24155.43247317  .00000787  00000-0  67554-4 0  9995,2 49759  53.2169 151.3052 0001356  79.8424 280.2721 15.08837496138418,6917.888,95.438,540.691,538.815,0.0
49759.0,STARLINK-3204,PAYLOAD,2024-06-03 16:44:18,15.08840339,0.0001353,53.2169,150.1161,82.3928,277.7218,7.3633e-05,8.84e-06,0.0,0 STARLINK-3204,1 49759U 21115AM  24155.69743154  .00000884  00000-0  73633-4 0  9996,2 49759  53.2169 150.1161 0001353  82.3928 277.7218 15.08840339138457,6917.879,95.438,540.68,538.808,0.0
49759.0,STARLINK-3204,PAYLOAD,2024-06-04 08:38:09,15.08842625,0.0001337,53.2166,147.1421,83.0736,277.0408,9.2795e-05,1.189e-05,0.0,0 STARLINK-3204,1 49759U 21115AM  24156.35982991  .00001189  00000-0  92795-4 0  9993,2 49759  53.2166 147.1421 0001337  83.0736 277.0408 15.08842625139664,6917.872,95.437,540.662,538.812,0.0
49759.0,STARLINK-3204,PAYLOAD,2024-06-04 16:35:04,15.08845031,0.0001344,53.2167,145.6556,84.6303,275.4842,0.00010472,1.379e-05,0.0,0 STARLINK-3204,1 49759U 21115AM  24156.69102767  .00001379  00000-0  10472-3 0  9997,2 49759  53.2167 145.6556 0001344  84.6303 275.4842 15.08845031138603,6917.865,95.437,540.66,538.8,0.0
49759.0,STARLINK-3204,PAYLOAD,2024-06-05 05:18:10,15.08833929,0.0001316,53.2158,143.2772,85.4399,274.6744,-6.4742e-06,-3.91e-06,0.0,0 STARLINK-3204,1 49759U 21115AM  24157.22095824 -.00000391  00000-0 -64742-5 0  9998,2 49759  53.2158 143.2772 0001316  85.4399 274.6744 15.08833929139796,6917.899,95.438,540.674,538.854,0.0
49759.0,STARLINK-3204,PAYLOAD,2024-06-05 16:25:52,15.08840938,0.0001357,53.2168,141.1934,90.3037,269.8111,2.9918e-05,1.88e-06,0.0,0 STARLINK-3204,1 49759U 21115AM  24157.68463298  .00000188  00000-0  29918-4 0  9999,2 49759  53.2168 141.1934 0001357  90.3037 269.8111 15.08840938139863,6917.878,95.437,540.681,538.804,0.0
49759.0,STARLINK-3204,PAYLOAD,2024-06-05 22:47:24,15.08841418,0.0001397,53.2167,140.0041,89.3229,270.7923,1.4822e-05,-5.2e-07,0.0,0 STARLINK-3204,1 49759U 21115AM  24157.94959289 -.00000052  00000-0  14822-4 0  9997,2 49759  53.2167 140.0041 0001397  89.3229 270.7923 15.08841418138791,6917.876,95.437,540.707,538.775,0.0
49759.0,STARLINK-3204,PAYLOAD,2024-06-06 05:08:57,15.08834621,0.000135,53.217,138.8143,95.2227,264.8919,0.00017927,2.566e-05,0.0,0 STARLINK-3204,1 49759U 21115AM  24158.21455291  .00002566  00000-0  17927-3 0  9991,2 49759  53.2170 138.8143 0001350  95.2227 264.8919 15.08834621138838,6917.897,95.438,540.696,538.828,0.0
49759.0,STARLINK-3204,PAYLOAD,2024-06-06 16:16:38,15.0884931,0.0001377,53.2171,136.7335,108.2703,251.8439,6.1413e-05,6.9e-06,0.0,0 STARLINK-3204,1 49759U 21115AM  24158.67822376  .00000690  00000-0  61413-4 0  9999,2 49759  53.2171 136.7335 0001377 108.2703 251.8439 15.08849310140019,6917.852,95.437,540.67,538.764,0.0
49759.0,STARLINK-3204,PAYLOAD,2024-06-07 22:28:58,15.08843683,0.0001665,53.2197,131.0823,105.2268,254.8908,2.0997e-05,4.6e-07,0.0,0 STARLINK-3204,1 49759U 21115AM  24159.93679030  .00000046  00000-0  20997-4 0  9993,2 49759  53.2197 131.0823 0001665 105.2268 254.8908 15.08843683139097,6917.869,95.437,540.886,538.582,0.0
49759.0,STARLINK-3204,PAYLOAD,2024-06-08 04:50:30,15.08869825,0.0001356,53.2191,129.8966,88.3584,271.7564,-0.00034106,-5.716e-05,0.0,0 STARLINK-3204,1 49759U 21115AM  24160.20174449 -.00005716  00000-0 -34106-3 0  9996,2 49759  53.2191 129.8966 0001356  88.3584 271.7564 15.08869825140244,6917.789,95.436,540.592,538.716,0.0
49759.0,STARLINK-3204,PAYLOAD,2024-06-08 14:22:49,15.08852094,0.0001335,53.219,128.1113,91.1849,268.9296,6.108e-05,6.85e-06,0.0,0 STARLINK-3204,1 49759U 21115AM  24160.59918144  .00000685  00000-0  61080-4 0  9996,2 49759  53.2190 128.1113 0001335  91.1849 268.9296 15.08852094139194,6917.843,95.437,540.632,538.785,0.0
49759.0,STARLINK-3204,PAYLOAD,2024-06-08 22:19:46,15.0882328,0.0001459,53.2182,126.6252,101.6753,258.4403,-5.8706e-05,-1.222e-05,0.0,0 STARLINK-3204,1 49759U 21115AM  24160.93040411 -.00001222  00000-0 -58706-4 0  9998,2 49759  53.2182 126.6252 0001459 101.6753 258.4403 15.08823280139245,6917.931,95.439,540.806,538.787,0.0
